ONEWEB-0656             
1 55817U 23029X   24146.18155340  .00002827  00000+0  69173-2 0  9992
2 55817  87.9220  64.2317 0001650  56.4550 303.6741 13.20794713 62432
ONEWEB-0657             
1 55818U 23029Y   24145.90895840  .00000009  00000+0 -10951-4 0  9991
2 55818  87.9145  94.8868 0002388  59.0851 301.0516 13.19726660 59556
ONEWEB-0658             
1 55819U 23029Z   24145.90421511  .00000054  00000+0  10329-3 0  9999
2 55819  87.9145  94.8236 0002712  89.3266 270.8178 13.19728244 59561
ONEWEB-0660             
1 55820U 23029AA  24145.86506253  .00000022  00000+0  25258-4 0  9996
2 55820  87.8964  79.5615 0002090  95.3776 264.7592 13.14501675 60436
ONEWEB-0661             
1 55821U 23029AB  24145.82382010  .00000071  00000+0  15721-3 0  9993
2 55821  87.8968  79.6360 0001876  94.9413 265.1931 13.14506540 60419
ONEWEB-0662             
1 55822U 23029AC  24145.85871122 -.00000084  00000+0 -26224-3 0  9990
2 55822  87.8964  79.6372 0002194  92.3076 267.8304 13.14505985 60460
ONEWEB-0663             
1 55823U 23029AD  24146.17480916  .00007151  00000+0  17524-1 0  9995
2 55823  87.9229  64.2930 0001965  93.3328 266.8030 13.20836689 62420
ONEWEB-0664             
1 55824U 23029AE  24145.79017168  .00000044  00000+0  77196-4 0  9996
2 55824  87.9224  64.3831 0001504  87.0634 273.0672 13.20772152 61690
